     2.11           G: GLONASS NAV DATA                     RINEX VERSION / TYPE
teqc  2019Feb25                         20230219 23:04:23UTCPGM / RUN BY / DATE
Linux2.6.32-573.12.1.el6.x86_64|x86_64|gcc|Win64-MinGW64|=+ COMMENT
                                                            END OF HEADER
 6 22  8 11  8 15  0.0-6.389245390892D-05-1.818989403546D-12 2.961000000000D+04
   -6.876416015625D+01-2.426243782043D+00 3.725290298462D-09 0.000000000000D+00
    1.291213818359D+04-1.787157058716D+00 2.793967723846D-09-4.000000000000D+00
    2.199019921875D+04 1.039141654968D+00-0.000000000000D+00 0.000000000000D+00
 7 22  8 11  8 15  0.0 3.919657319784D-05 9.094947017729D-13 2.958000000000D+04
    1.449365576172D+04-1.143749237061D+00 3.725290298462D-09 0.000000000000D+00
    1.770098388672D+04-1.055625915527D+00 4.656612873077D-09 5.000000000000D+00
    1.136921240234D+04 3.106827735901D+00 1.862645149231D-09 0.000000000000D+00
 8 22  8 11  8 15  0.0-6.663519889116D-05-0.000000000000D+00 2.958000000000D+04
    2.128087304688D+04 6.424827575684D-01 1.862645149231D-09 0.000000000000D+00
    1.319080126953D+04 2.754936218262D-01 3.725290298462D-09 6.000000000000D+00
   -4.900955078125D+03 3.490086555481D+00 2.793967723846D-09 0.000000000000D+00
12 22  8 11  8 15  0.0 1.989584416151D-05 0.000000000000D+00 2.958000000000D+04
    2.358014404297D+04-1.794462203979D-01-9.313225746155D-10 0.000000000000D+00
   -9.701840820313D+03-8.924770355225D-02 2.793967723846D-09-1.000000000000D+00
   -9.127299804688D+02-3.561364173889D+00 9.313225746155D-10 0.000000000000D+00
13 22  8 11  8 15  0.0-2.559926360846D-05-0.000000000000D+00 2.958000000000D+04
    1.515195605469D+04 1.781435966492D+00-9.313225746155D-10 0.000000000000D+00
   -1.440873974609D+04-9.173860549927D-01 2.793967723846D-09-2.000000000000D+00
    1.460061035156D+04-2.752671241760D+00-9.313225746155D-10 0.000000000000D+00
14 22  8 11  8 15  0.0 2.454314380884D-05 0.000000000000D+00 2.958000000000D+04
   -3.520843750000D+03 2.871902465820D+00 0.000000000000D+00 0.000000000000D+00
   -1.061147509766D+04-1.257870674133D+00 9.313225746155D-10-7.000000000000D+00
    2.294478662109D+04-1.430559158325D-01-2.793967723846D-09 0.000000000000D+00
21 22  8 11  8 15  0.0-3.246394917369D-04-3.637978807092D-12 2.958000000000D+04
    2.499826660156D+03-1.996326446533D-02 4.656612873077D-09 0.000000000000D+00
    2.230945507813D+04 1.670112609863D+00 2.793967723846D-09 4.000000000000D+00
    1.207415869141D+04-3.083102226257D+00 9.313225746155D-10 0.000000000000D+00
23 22  8 11  8 15  0.0-5.092751234770D-05-9.094947017729D-13 2.958000000000D+04
    1.058589941406D+04-5.112934112549D-01-0.000000000000D+00 0.000000000000D+00
   -1.248059570313D+04 2.639426231384D+00 2.793967723846D-09 3.000000000000D+00
    1.955516015625D+04 1.959395408630D+00-1.862645149231D-09 0.000000000000D+00
 8 22  8 11  8 45  0.0-6.663519889116D-05 0.000000000000D+00 3.060000000000D+04
    2.180516357422D+04-8.555316925049D-02 2.793967723846D-09 0.000000000000D+00
    1.318770751953D+04-2.468042373657D-01 3.725290298462D-09 6.000000000000D+00
    1.489431640625D+03 3.564270973206D+00 2.793967723846D-09 0.000000000000D+00
 6 22  8 11  8 45  0.0-6.389617919922D-05-1.818989403546D-12 3.060000000000D+04
   -4.789909667969D+03-2.779506683350D+00 3.725290298462D-09 0.000000000000D+00
    9.940899902344D+03-1.482027053833D+00 9.313225746155D-10-4.000000000000D+00
    2.298568017578D+04 5.969333648682D-02-9.313225746155D-10 0.000000000000D+00
13 22  8 11  8 45  0.0-2.559646964073D-05-0.000000000000D+00 3.060000000000D+04
    1.766000097656D+04 9.976129531860D-01-9.313225746155D-10 0.000000000000D+00
   -1.596700390625D+04-7.708578109741D-01 2.793967723846D-09-2.000000000000D+00
    9.145037109375D+03-3.269682884216D+00-0.000000000000D+00 0.000000000000D+00
14 22  8 11  8 45  0.0 2.454314380884D-05 0.000000000000D+00 3.060000000000D+04
    1.378544433594D+03 2.530493736267D+00-0.000000000000D+00 0.000000000000D+00
   -1.318712353516D+04-1.574490547180D+00 1.862645149231D-09-7.000000000000D+00
    2.180526855469D+04-1.114947319031D+00-2.793967723846D-09 0.000000000000D+00
23 22  8 11  8 45  0.0-5.093030631542D-05-9.094947017729D-13 3.060000000000D+04
    1.001429003906D+04-1.022357940674D-01 9.313225746155D-10 0.000000000000D+00
   -7.310253906250D+03 3.058357238770D+00 3.725290298462D-09 3.000000000000D+00
    2.227975878906D+04 1.048231124878D+00-9.313225746155D-10 0.000000000000D+00
21 22  8 11  8 45  0.0-3.246450796723D-04-3.637978807092D-12 3.060000000000D+04
    2.719175781250D+03 2.261152267456D-01 4.656612873077D-09 0.000000000000D+00
    2.459204833984D+04 8.424081802368D-01 1.862645149231D-09 4.000000000000D+00
    6.128620117188D+03-3.480066299438D+00 1.862645149231D-09 0.000000000000D+00
 7 22  8 11  8 45  0.0 3.919843584299D-05 9.094947017729D-13 3.060000000000D+04
    1.175547363281D+04-1.890302658081D+00 4.656612873077D-09 0.000000000000D+00
    1.561801074219D+04-1.214334487915D+00 3.725290298462D-09 5.000000000000D+00
    1.645210058594D+04 2.504367828369D+00 9.313225746155D-10 0.000000000000D+00
24 22  8 11  8 45  0.0 1.083109527826D-04 1.818989403546D-12 3.147000000000D+04
    6.064991210938D+03-1.657810211182D-01-1.862645149231D-09 0.000000000000D+00
   -2.129703710938D+04 1.734923362732D+00 1.862645149231D-09 2.000000000000D+00
    1.269347119141D+04 2.990415573120D+00-1.862645149231D-09 0.000000000000D+00
 8 22  8 11  9 15  0.0-6.663426756859D-05 0.000000000000D+00 3.240000000000D+04
    2.091127001953D+04-9.156246185303D-01 4.656612873077D-09 0.000000000000D+00
    1.243603564453D+04-5.476045608521D-01 3.725290298462D-09 6.000000000000D+00
    7.765021972656D+03 3.363502502441D+00 1.862645149231D-09 0.000000000000D+00
13 22  8 11  9 15  0.0-2.559740096331D-05-0.000000000000D+00 3.240000000000D+04
    1.875040576172D+04 2.253332138062D-01-0.000000000000D+00 0.000000000000D+00
   -1.703164941406D+04-3.722152709961D-01 3.725290298462D-09-2.000000000000D+00
    2.981951171875D+03-3.533692359924D+00 0.000000000000D+00 0.000000000000D+00
14 22  8 11  9 15  0.0 2.454314380884D-05-0.000000000000D+00 3.240000000000D+04
    5.463175292969D+03 1.980509757996D+00-0.000000000000D+00 0.000000000000D+00
   -1.615098974609D+04-1.677854537964D+00 2.793967723846D-09-7.000000000000D+00
    1.898244091797D+04-2.001280784607D+00-1.862645149231D-09 0.000000000000D+00
23 22  8 11  9 15  0.0-5.093310028315D-05-9.094947017729D-13 3.240000000000D+04
    1.026413085938D+04 3.834781646729D-01 2.793967723846D-09 0.000000000000D+00
   -1.653683593750D+03 3.173563957214D+00 2.793967723846D-09 3.000000000000D+00
    2.327989648438D+04 5.578708648682D-02-0.000000000000D+00 0.000000000000D+00
24 22  8 11  9 15  0.0 1.083156093955D-04 1.818989403546D-12 3.240000000000D+04
    6.050900390625D+03 1.790666580200D-01 0.000000000000D+00 0.000000000000D+00
   -1.754988037109D+04 2.392424583435D+00 2.793967723846D-09 2.000000000000D+00
    1.751697656250D+04 2.334305763245D+00-1.862645149231D-09 0.000000000000D+00
 7 22  8 11  9 15  0.0 3.920029848814D-05 9.094947017729D-13 3.240000000000D+04
    7.752409667969D+03-2.530895233154D+00 4.656612873077D-09 0.000000000000D+00
    1.348413085938D+04-1.116603851318D+00 1.862645149231D-09 5.000000000000D+00
    2.026911279297D+04 1.709360122681D+00 0.000000000000D+00 0.000000000000D+00
 6 22  8 11  9 15  0.0-6.389990448952D-05-1.818989403546D-12 3.255000000000D+04
   -9.912857421875D+03-2.863925933838D+00 2.793967723846D-09 0.000000000000D+00
    7.665842285156D+03-1.029323577881D+00 0.000000000000D+00-4.000000000000D+00
    2.220208691406D+04-9.247503280640D-01-1.862645149231D-09 0.000000000000D+00
15 22  8 11  9 15  0.0 9.425356984138D-05 0.000000000000D+00 3.321000000000D+04
   -1.028142041016D+04 2.444794654846D+00 0.000000000000D+00 0.000000000000D+00
   -5.754202148438D+03-1.895419120789D+00 0.000000000000D+00 0.000000000000D+00
    2.265027441406D+04 6.283140182495D-01-2.793967723846D-09 0.000000000000D+00
 1 22  8 11  9 15  0.0 1.294165849686D-05 0.000000000000D+00 3.387000000000D+04
    2.352028808594D+04 1.185778617859D+00 1.862645149231D-09 0.000000000000D+00
    4.302333984375D+03 2.973632812500D-01 2.793967723846D-09 1.000000000000D+00
   -8.870835449219D+03 3.289793968201D+00 2.793967723846D-09 0.000000000000D+00
 8 22  8 11  9 45  0.0-6.663426756859D-05 0.000000000000D+00 3.420000000000D+04
    1.851507226563D+04-1.735398292542D+00 5.587935447693D-09 0.000000000000D+00
    1.136820605469D+04-5.968141555786D-01 2.793967723846D-09 6.000000000000D+00
    1.344240917969D+04 2.904008865356D+00 9.313225746155D-10 0.000000000000D+00
15 22  8 11  9 45  0.0 9.425450116396D-05 0.000000000000D+00 3.420000000000D+04
   -6.093662597656D+03 2.169173240662D+00 0.000000000000D+00 0.000000000000D+00
   -9.516710449219D+03-2.251974105835D+00 9.313225746155D-10 0.000000000000D+00
    2.289359033203D+04-3.597259521484D-01-2.793967723846D-09 0.000000000000D+00
14 22  8 11  9 45  0.0 2.454314380884D-05-0.000000000000D+00 3.420000000000D+04
    8.440437011719D+03 1.317770004272D+00 0.000000000000D+00 0.000000000000D+00
   -1.906922167969D+04-1.519054412842D+00 2.793967723846D-09-7.000000000000D+00
    1.469332226563D+04-2.733566284180D+00-9.313225746155D-10 0.000000000000D+00
23 22  8 11  9 45  0.0-5.093589425087D-05-9.094947017729D-13 3.420000000000D+04
    1.137390478516D+04 8.345232009888D-01 4.656612873077D-09 0.000000000000D+00
    3.923795898438D+03 2.972435951233D+00 2.793967723846D-09 3.000000000000D+00
    2.247793164063D+04-9.410781860352D-01-0.000000000000D+00 0.000000000000D+00
 1 22  8 11  9 45  0.0 1.294258981943D-05 0.000000000000D+00 3.420000000000D+04
    2.496137500000D+04 3.914937973022D-01 3.725290298462D-09 0.000000000000D+00
    4.483153808594D+03-6.261157989502D-02 2.793967723846D-09 1.000000000000D+00
   -2.682566406250D+03 3.541382789612D+00 2.793967723846D-09 0.000000000000D+00
